[{"OBJECT_NAME":"STARLINK-31291","OBJECT_ID":"2024-041Y","EPOCH":"2026-03-09T01:05:04.867872","MEAN_MOTION":15.27575207,"ECCENTRICITY":0.00010879,"INCLINATION":43.0032,"RA_OF_ASC_NODE":314.2775,"ARG_OF_PERICENTER":284.5172,"MEAN_ANOMALY":75.5559,"EPHEMERIS_TYPE":0,"CLASSIFICATION_TYPE":"U","NORAD_CAT_ID":59096,"ELEMENT_SET_NO":999,"REV_AT_EPOCH":11417,"BSTAR":5.7830231e-5,"MEAN_MOTION_DOT":1.329e-5,"MEAN_MOTION_DDOT":0},{"OBJECT_NAME":"OBJECT C","OBJECT_ID":"2024-085C","EPOCH":"2026-03-09T22:49:58.289376","MEAN_MOTION":15.31893958,"ECCENTRICITY":0.00283931,"INCLINATION":97.3357,"RA_OF_ASC_NODE":145.6975,"ARG_OF_PERICENTER":37.3887,"MEAN_ANOMALY":322.9323,"EPHEMERIS_TYPE":0,"CLASSIFICATION_TYPE":"U","NORAD_CAT_ID":59679,"ELEMENT_SET_NO":999,"REV_AT_EPOCH":10244,"BSTAR":0.00039740634,"MEAN_MOTION_DOT":0.0001232,"MEAN_MOTION_DDOT":0}]
